H1 CPF  1  DGF 2022 08 27 11  7391 larets     NONE      
H2   304206 5557    27944 2022 08 27 00 00 00 2022 09 03 00 00 00    30 1 1  0 0 0
H5  0.0650
H9
10 0 59821  61200.000000  0      -4102680.408       4464926.122       3597280.773
10 0 59821  61230.000000  0      -3986225.589       4412885.394       3786655.137
10 0 59821  61260.000000  0      -3865950.154       4355832.943       3972144.930
10 0 59821  61290.000000  0      -3741998.529       4293810.584       4153559.976
10 0 59821  61320.000000  0      -3614518.720       4226865.872       4330714.327
10 0 59821  61350.000000  0      -3483662.131       4155052.063       4503426.465
10 0 59821  61380.000000  0      -3349583.375       4078428.072       4671519.480
10 0 59821  61410.000000  0      -3212440.091       3997058.418       4834821.260
10 0 59821  61440.000000  0      -3072392.749       3911013.167       4993164.664
10 0 59821  61470.000000  0      -2929604.460       3820367.873       5146387.693
10 0 59821  61500.000000  0      -2784240.780       3725203.497       5294333.661
10 0 59821  61530.000000  0      -2636469.510       3625606.340       5436851.344
10 0 59821  61560.000000  0      -2486460.498       3521667.952       5573795.144
10 0 59821  61590.000000  0      -2334385.441       3413485.046       5705025.227
10 0 59821  61620.000000  0      -2180417.680       3301159.400       5830407.666
10 0 59821  61650.000000  0      -2024731.999       3184797.759       5949814.574
10 0 59821  61680.000000  0      -1867504.422       3064511.726       6063124.234
10 0 59821  61710.000000  0      -1708912.010       2940417.646       6170221.214
10 0 59821  61740.000000  0      -1549132.651       2812636.490       6270996.483
10 0 59821  61770.000000  0      -1388344.863       2681293.726       6365347.510
10 0 59821  61800.000000  0      -1226727.595       2546519.194       6453178.360
10 0 59821  61830.000000  0      -1064460.025       2408446.979       6534399.791
10 0 59821  61860.000000  0       -901721.363       2267215.271       6608929.338
10 0 59821  61890.000000  0       -738690.652       2122966.224       6676691.402
10 0 59821  61920.000000  0       -575546.564       1975845.810       6737617.316
10 0 59821  61950.000000  0       -412467.204       1826003.659       6791645.417
10 0 59821  61980.000000  0       -249629.915       1673592.912       6838721.098
10 0 59821  62010.000000  0        -87211.080       1518770.053       6878796.857
10 0 59821  62040.000000  0         74614.067       1361694.753       6911832.347
10 0 59821  62070.000000  0        235671.630       1202529.699       6937794.404
10 0 59821  62100.000000  0        395789.244       1041440.425       6956657.083
10 0 59821  62130.000000  0        554796.253        878595.137       6968401.678
10 0 59821  62160.000000  0        712523.894        714164.540       6973016.740
10 0 59821  62190.000000  0        868805.480        548321.652       6970498.084
10 0 59821  62220.000000  0       1023476.572        381241.628       6960848.796
10 0 59821  62250.000000  0       1176375.156        213101.566       6944079.225
10 0 59821  62280.000000  0       1327341.811         44080.325       6920206.973
10 0 59821  62310.000000  0       1476219.877       -125641.672       6889256.878
10 0 59821  62340.000000  0       1622855.622       -295882.632       6851260.988
10 0 59821  62370.000000  0       1767098.393       -466459.590       6806258.525
10 0 59821  62400.000000  0       1908800.780       -637188.605       6754295.841
10 0 59821  62430.000000  0       2047818.761       -807884.956       6695426.377
10 0 59821  62460.000000  0       2184011.851       -978363.342       6629710.610
10 0 59821  62490.000000  0       2317243.250      -1148438.087       6557215.993
10 0 59821  62520.000000  0       2447379.978      -1317923.345       6478016.888
10 0 59821  62550.000000  0       2574293.016      -1486633.301       6392194.494
10 0 59821  62580.000000  0       2697857.430      -1654382.385       6299836.762
10 0 59821  62610.000000  0       2817952.503      -1820985.470       6201038.305
10 0 59821  62640.000000  0       2934461.848      -1986258.083       6095900.307
10 0 59821  62670.000000  0       3047273.525      -2150016.608       5984530.415
10 0 59821  62700.000000  0       3156280.152      -2312078.493       5867042.637
10 0 59821  62730.000000  0       3261379.007      -2472262.451       5743557.228
10 0 59821  62760.000000  0       3362472.130      -2630388.675       5614200.566
10 0 59821  62790.000000  0       3459466.414      -2786279.032       5479105.032
10 0 59821  62820.000000  0       3552273.697      -2939757.278       5338408.868
10 0 59821  62850.000000  0       3640810.839      -3090649.252       5192256.044
10 0 59821  62880.000000  0       3724999.801      -3238783.079       5040796.106
10 0 59821  62910.000000  0       3804767.716      -3383989.367       4884184.030
10 0 59821  62940.000000  0       3880046.955      -3526101.410       4722580.063
10 0 59821  62970.000000  0       3950775.185      -3664955.375       4556149.557
10 0 59821  63000.000000  0       4016895.421      -3800390.503       4385062.802
10 0 59821  63030.000000  0       4078356.071      -3932249.293       4209494.846
10 0 59821  63060.000000  0       4135110.975      -4060377.689       4029625.322
10 0 59821  63090.000000  0       4187119.436      -4184625.264       3845638.261
10 0 59821  63120.000000  0       4234346.253      -4304845.397       3657721.901
10 0 59821  63150.000000  0       4276761.735      -4420895.457       3466068.496
10 0 59821  63180.000000  0       4314341.723      -4532636.965       3270874.113
10 0 59821  63210.000000  0       4347067.590      -4639935.770       3072338.427
10 0 59821  63240.000000  0       4374926.244      -4742662.205       2870664.517
10 0 59821  63270.000000  0       4397910.125      -4840691.250       2666058.651
10 0 59821  63300.000000  0       4416017.185      -4933902.679       2458730.071
10 0 59821  63330.000000  0       4429250.878      -5022181.213       2248890.777
10 0 59821  63360.000000  0       4437620.125      -5105416.661       2036755.304
10 0 59821  63390.000000  0       4441139.290      -5183504.056       1822540.498
10 0 59821  63420.000000  0       4439828.135      -5256343.786       1606465.286
10 0 59821  63450.000000  0       4433711.778      -5323841.721       1388750.451
10 0 59821  63480.000000  0       4422820.638      -5385909.329       1169618.394
10 0 59821  63510.000000  0       4407190.376      -5442463.784        949292.905
10 0 59821  63540.000000  0       4386861.834      -5493428.075        727998.934
10 0 59821  63570.000000  0       4361880.962      -5538731.099        505962.352
10 0 59821  63600.000000  0       4332298.755      -5578307.761        283409.723
10 0 59821  63630.000000  0       4298171.162      -5612099.059         60568.059
10 0 59821  63660.000000  0       4259559.004      -5640052.166       -162335.414
10 0 59821  63690.000000  0       4216527.883      -5662120.498       -385073.500
10 0 59821  63720.000000  0       4169148.075      -5678263.782       -607419.268
10 0 59821  63750.000000  0       4117494.434      -5688448.103       -829146.291
10 0 59821  63780.000000  0       4061646.274      -5692645.961      -1050028.878
10 0 59821  63810.000000  0       4001687.260      -5690836.303      -1269842.309
10 0 59821  63840.000000  0       3937705.288      -5683004.563      -1488363.063
10 0 59821  63870.000000  0       3869792.366      -5669142.684      -1705369.050
10 0 59821  63900.000000  0       3798044.482      -5649249.143      -1920639.839
10 0 59821  63930.000000  0       3722561.481      -5623328.957      -2133956.885
10 0 59821  63960.000000  0       3643446.922      -5591393.692      -2345103.751
10 0 59821  63990.000000  0       3560807.946      -5553461.456      -2553866.336
10 0 59821  64020.000000  0       3474755.127      -5509556.888      -2760033.085
10 0 59821  64050.000000  0       3385402.328      -5459711.137      -2963395.208
10 0 59821  64080.000000  0       3292866.552      -5403961.837      -3163746.886
10 0 59821  64110.000000  0       3197267.790      -5342353.075      -3360885.481
10 0 59821  64140.000000  0       3098728.864      -5274935.349      -3554611.733
10 0 59821  64170.000000  0       2997375.271      -5201765.521      -3744729.963
10 0 59821  64200.000000  0       2893335.024      -5122906.762      -3931048.266
10 0 59821  64230.000000  0       2786738.487      -5038428.492      -4113378.694
10 0 59821  64260.000000  0       2677718.217      -4948406.308      -4291537.446
10 0 59821  64290.000000  0       2566408.798      -4852921.911      -4465345.045
10 0 59821  64320.000000  0       2452946.673      -4752063.022      -4634626.509
10 0 59821  64350.000000  0       2337469.983      -4645923.296      -4799211.520
10 0 59821  64380.000000  0       2220118.396      -4534602.226      -4958934.586
10 0 59821  64410.000000  0       2101032.946      -4418205.040      -5113635.198
10 0 59821  64440.000000  0       1980355.863      -4296842.603      -5263157.980
10 0 59821  64470.000000  0       1858230.404      -4170631.301      -5407352.837
10 0 59821  64500.000000  0       1734800.690      -4039692.928      -5546075.096
10 0 59821  64530.000000  0       1610211.534      -3904154.561      -5679185.642
10 0 59821  64560.000000  0       1484608.275      -3764148.436      -5806551.045
10 0 59821  64590.000000  0       1358136.612      -3619811.814      -5928043.685
10 0 59821  64620.000000  0       1230942.436      -3471286.846      -6043541.872
10 0 59821  64650.000000  0       1103171.669      -3318720.430      -6152929.956
10 0 59821  64680.000000  0        974970.092      -3162264.063      -6256098.436
10 0 59821  64710.000000  0        846483.191      -3002073.691      -6352944.056
10 0 59821  64740.000000  0        717855.987      -2838309.550      -6443369.903
10 0 59821  64770.000000  0        589232.884      -2671136.005      -6527285.492
99
